CELESTIS-02             
1 25160U 98007D   23007.61801080  .00000082  00000+0  94056-4 0  9991
2 25160 107.9887 317.8956 0060793 121.6671  50.3242 14.21679811291877
CELESTIS-03             
1 26034U 99070C   23007.83013323  .00040416  00000+0  14787-2 0  9998
2 26034  98.2985  40.2417 0008895 142.0862 218.1002 15.27905956252179
